#aV2010  5 18  0  0   .00000000      96 DD+AD WGS84 FIT  NGA
## 1584 172800.00000000   900.00000000 55334  .0000000000000
+   31     1  2  3  4  5  6  7  8  9 10 11 12 13 14 15 16 17
+         18 19 20 21 22 23 24 26 27 28 29 30 31 32  0  0  0
+          0  0  0  0  0  0  0  0  0  0  0  0  0  0  0  0  0
+          0  0  0  0  0  0  0  0  0  0  0  0  0  0  0  0  0
+          0  0  0  0  0  0  0  0  0  0  0  0  0  0  0  0  0
++         0  0  0  0  0  0  0  0  0  0  0  0  0  0  0  0  0
++         0  0  0  0  0  0  0  0  0  0  0  0  0  0  0  0  0
++         0  0  0  0  0  0  0  0  0  0  0  0  0  0  0  0  0
++         0  0  0  0  0  0  0  0  0  0  0  0  0  0  0  0  0
++         0  0  0  0  0  0  0  0  0  0  0  0  0  0  0  0  0
%c cc cc ccc ccc cccc cccc cccc cccc ccccc ccccc ccccc ccccc
%c cc cc ccc ccc cccc cccc cccc cccc ccccc ccccc ccccc ccccc
%f  0.0000000  0.000000000  0.00000000000  0.000000000000000
%f  0.0000000  0.000000000  0.00000000000  0.000000000000000
%i    0    0    0    0      0      0      0      0         0
%i    0    0    0    0      0      0      0      0         0
/*      NGA, ST. LOUIS,MO.                                  
/*   EPHEMERIS COMPUTED FROM  3 DAYS OF DATA                
/* CCCCCCCCCCCCCCCCCCCCCCCCCCCCCCCCCCCCCCCCCCCCCCCCCCCCCCCCC
/* CCCCCCCCCCCCCCCCCCCCCCCCCCCCCCCCCCCCCCCCCCCCCCCCCCCCCCCCC
*  2010  5 18 17 15   .00000000                                                 
P  1   6391.253980 -22179.899858 -13146.428016   -121.260074                    
V  1  12192.701598 -11393.503620  25515.403995      -.040203                    
P  2  14222.613419  21453.292105  -7476.161831    256.797086                    
V  2    717.700022   9779.171886  29063.854938       .034439                    
P  3 -20903.837575 -10770.519232 -13036.749457    556.685141                    
V  3  16038.785942  -1994.530583 -24418.646493       .051548                    
P  4   4873.219908  25241.349005   5704.483622     84.689980                    
V  4  -6096.841072  -5803.242242  30352.989570       .083168                    
P  5  11266.651845  10325.733876 -21739.740599     -3.455672                    
V  5 -17597.293960  21223.405479   1043.961009      -.011567                    
P  6 -17195.271832 -13312.060619 -15165.070041    636.032347                    
V  6  19757.891018   -222.097643 -21799.069483      -.113061                    
P  7  -9519.722948  14222.666269 -20277.255467      -.570724                    
V  7  -9848.771009 -23799.165198 -12237.618394      -.003383                    
P  8  -1905.586005  22974.880389 -12713.521853      5.424258                    
V  8  -6334.616053 -15100.175752 -26877.574943       .001556                    
P  9  16548.822894   6823.042288  19096.518617      7.287116                    
V  9   8421.740914  23942.134441 -15375.025823       .022574                    
P 10   2936.385945  17805.633169 -19555.070067    -42.846932                    
V 10 -17189.201941  17619.442895  13932.936748      -.007237                    
P 11 -18553.853130   -179.953426  18848.905375    -63.354732                    
V 11 -12196.156401 -21561.737466 -11678.000693      -.023222                    
P 12  20068.960492  -6908.425693  15919.457255   -113.977402                    
V 12 -11620.360450  16575.240139  22059.787889       .042644                    
P 13 -20287.208485   6000.561628 -16219.749944    304.306404                    
V 13 -19417.759793  -5881.713647  22274.868940      -.003891                    
P 14    413.302047 -14903.038718  22126.488837     47.016301                    
V 14  27077.578870   5753.310730   3264.850178       .043745                    
P 15  25529.039667   6563.056025  -3742.605908   -270.994963                    
V 15  -5139.155998   2157.988624 -31043.243788       .058913                    
P 16  -6009.872602 -14930.487776 -21032.638648    -72.731727                    
V 16  18267.364196 -19667.602301   8995.337804      -.037476                    
P 17  -1621.149205  15238.765747  21802.661751    151.508159                    
V 17 -26946.540373  -5150.802076   1397.427776       .023718                    
P 18  17418.724889 -19763.620115   -320.353520     69.030738                    
V 18   2462.568777   3094.841020 -31479.830356       .024543                    
P 19 -25400.829164  -8002.530687  -2263.964214    -35.831308                    
V 19   3448.556660  -1868.772513 -31306.159331      -.027084                    
P 20 -20371.858743   9708.827644  13828.945173     55.943766                    
V 20   8751.448847 -15824.229822  23816.920593      -.005700                    
P 21   7600.090786 -17700.582115 -17678.238940    -61.008397                    
V 21  10208.318544  21251.425040 -17207.040043      -.025781                    
P 22   9409.952840 -22530.588122  10504.141389    171.829721                    
V 22  11076.079417  -7829.203807 -27222.612272      -.009058                    
P 23 -25370.753269   1311.599635  -8316.593509    370.373396                    
V 23  -9889.478232  -3936.708070  29335.268558      -.013735                    
P 24    650.657423 -24255.461936 -11027.037143    288.420176                    
V 24   6663.722216  12636.314594 -26949.050639       .033882                    
P 26  26056.975031   2880.829744   4895.952444    -53.588853                    
V 26   6289.963424   3103.697257 -31331.489756      -.050961                    
P 27  17540.540252   9578.380013  18253.245453    153.094780                    
V 27   7685.784423  20336.467235 -18618.273323       .034112                    
P 28 -11312.359838  22224.495947   9181.703635    -15.911352                    
V 28  -9148.215300   6678.373440 -29221.118116       .009549                    
P 29  20642.673587  -6693.923202 -15192.782291    120.774921                    
V 29  18684.597241   5886.079844  22691.226010       .026884                    
P 30  18944.716436 -17135.141819   6777.332773    243.815945                    
V 30  -3169.575758   9065.264933  30090.032696       .034836                    
P 31  -6466.239706 -25378.352005   4014.522627    -35.867301                    
V 31   3928.254580   3728.203238  31684.997866       .020700                    
P 32 -18620.461975   -198.172944  19151.519002     26.582362                    
V 32  15566.516851 -17963.543724  15554.188767      -.085082                    
EOF
